{"type": "FeatureCollection", "features": [ {"type": "Feature", "properties": {"norad_id": 42969, "name": "SENTINEL-5P", "group": "resource", "lat": 37.262627227160294, "lon": 104.3041265087634, "alt_km": 823.8883457289103, "timestamp": "2025-12-04T21:36:15.531865+00:00", "meta": {"OBJECT_NAME": "SENTINEL-5P", "OBJECT_ID": "2017-064A", "EPOCH": "2025-12-04T14:10:13.418112", "MEAN_MOTION": 14.19514284, "ECCENTRICITY": 9.446e-05, "INCLINATION": 98.7771, "RA_OF_ASC_NODE": 277.2473, "ARG_OF_PERICENTER": 86.0415, "MEAN_ANOMALY": 274.0869, "EPHEMERIS_TYPE": 0, "CLASSIFICATION_TYPE": "U", "NORAD_CAT_ID": 42969, "ELEMENT_SET_NO": 999, "REV_AT_EPOCH": 42195, "BSTAR": 0.00010751685, "MEAN_MOTION_DOT": 1.82e-06, "MEAN_MOTION_DDOT": 0}, "tle": {"line1": "1 42969U 17064A   25338.59043308  .00000182  00000+0  10752-3 0  9999", "line2": "2 42969  98.7771 277.2473 0000944  86.0415 274.0869 14.19514284421950"}}, "geometry": {"type": "Point", "coordinates": [104.3041265087634, 37.262627227160294]}}, {"type": "Feature", "properties": {"norad_id": 42987, "name": "SKYSAT-C11", "group": "resource", "lat": -76.12320816194692, "lon": -95.60680141990747, "alt_km": 433.49755603365884, "timestamp": "2025-12-04T21:36:15.531875+00:00", "meta": {"OBJECT_NAME": "SKYSAT-C11", "OBJECT_ID": "2017-068A", "EPOCH": "2025-12-04T08:04:18.175008", "MEAN_MOTION": 15.46918857, "ECCENTRICITY": 9.371e-05, "INCLINATION": 97.4136, "RA_OF_ASC_NODE": 115.6241, "ARG_OF_PERICENTER": 111.7311, "MEAN_ANOMALY": 248.4038, "EPHEMERIS_TYPE": 0, "CLASSIFICATION_TYPE": "U", "NORAD_CAT_ID": 42987, "ELEMENT_SET_NO": 999, "REV_AT_EPOCH": 45301, "BSTAR": 0.00086033511, "MEAN_MOTION_DOT": 0.00043399, "MEAN_MOTION_DDOT": 0}, "tle": {"line1": "1 42987U 17068A   25338.33632147  .00043399  00000+0  86034-3 0  9993", "line2": "2 42987  97.4136 115.6241 0000937 111.7311 248.4038 15.46918857453012"}}, "geometry": {"type": "Point", "coordinates": [-95.60680141990747, -76.12320816194692]}}, {"type": "Feature", "properties": {"norad_id": 42988, "name": "SKYSAT-C10", "group": "resource", "lat": 48.35129662261038, "lon": 101.30354302825526, "alt_km": 465.39372857351555, "timestamp": "2025-12-04T21:36:15.531885+00:00", "meta": {"OBJECT_NAME": "SKYSAT-C10", "OBJECT_ID": "2017-068B", "EPOCH": "2025-12-04T07:16:54.384672", "MEAN_MOTION": 15.31835554, "ECCENTRICITY": 0.00069709, "INCLINATION": 97.4228, "RA_OF_ASC_NODE": 109.1352, "ARG_OF_PERICENTER": 134.0692, "MEAN_ANOMALY": 226.1124, "EPHEMERIS_TYPE": 0, "CLASSIFICATION_TYPE": "U", "NORAD_CAT_ID": 42988, "ELEMENT_SET_NO": 999, "REV_AT_EPOCH": 45250, "BSTAR": 0.00074085265, "MEAN_MOTION_DOT": 0.00022753, "MEAN_MOTION_DDOT": 0}, "tle": {"line1": "1 42988U 17068B   25338.30340723  .00022753  00000+0  74085-3 0  9991", "line2": "2 42988  97.4228 109.1352 0006970 134.0692 226.1124 15.31835554452507"}}, "geometry": {"type": "Point", "coordinates": [101.30354302825526, 48.35129662261038]}}, {"type": "Feature", "properties": {"norad_id": 42989, "name": "SKYSAT-C9", "group": "resource", "lat": 34.69420366134325, "lon": -65.73037669920569, "alt_km": 450.31895660459486, "timestamp": "2025-12-04T21:36:15.531896+00:00", "meta": {"OBJECT_NAME": "SKYSAT-C9", "OBJECT_ID": "2017-068C", "EPOCH": "2025-12-04T08:27:57.708864", "MEAN_MOTION": 15.35718179, "ECCENTRICITY": 0.00106538, "INCLINATION": 97.4185, "RA_OF_ASC_NODE": 108.543, "ARG_OF_PERICENTER": 115.0051, "MEAN_ANOMALY": 245.23, "EPHEMERIS_TYPE": 0, "CLASSIFICATION_TYPE": "U", "NORAD_CAT_ID": 42989, "ELEMENT_SET_NO": 999, "REV_AT_EPOCH": 45279, "BSTAR": 0.00078250512, "MEAN_MOTION_DOT": 0.00027214, "MEAN_MOTION_DDOT": 0}, "tle": {"line1": "1 42989U 17068C   25338.35275126  .00027214  00000+0  78251-3 0  9997", "line2": "2 42989  97.4185 108.5430 0010653 115.0051 245.2300 15.35718179452797"}}, "geometry": {"type": "Point", "coordinates": [-65.73037669920569, 34.69420366134325]}}, {"type": "Feature", "properties": {"norad_id": 42990, "name": "SKYSAT-C8", "group": "resource", "lat": -23.138398439596298, "lon": -74.32766225976846, "alt_km": 474.846726353544, "timestamp": "2025-12-04T21:36:15.531906+00:00", "meta": {"OBJECT_NAME": "SKYSAT-C8", "OBJECT_ID": "2017-068D", "EPOCH": "2025-12-04T16:01:10.335936", "MEAN_MOTION": 15.32647, "ECCENTRICITY": 0.00020706, "INCLINATION": 97.4278, "RA_OF_ASC_NODE": 108.6347, "ARG_OF_PERICENTER": 17.0554, "MEAN_ANOMALY": 343.0757, "EPHEMERIS_TYPE": 0, "CLASSIFICATION_TYPE": "U", "NORAD_CAT_ID": 42990, "ELEMENT_SET_NO": 999, "REV_AT_EPOCH": 45247, "BSTAR": 0.00070665107, "MEAN_MOTION_DOT": 0.0002224, "MEAN_MOTION_DDOT": 0}, "tle": {"line1": "1 42990U 17068D   25338.66748074  .00022240  00000+0  70665-3 0  9995", "line2": "2 42990  97.4278 108.6347 0002070  17.0554 343.0757 15.32647000452472"}}, "geometry": {"type": "Point", "coordinates": [-74.32766225976846, -23.138398439596298]}}, {"type": "Feature", "properties": {"norad_id": 42991, "name": "SKYSAT-C7", "group": "resource", "lat": 73.58967429122552, "lon": 83.61885601170795, "alt_km": 457.2450120166641, "timestamp": "2025-12-04T21:36:15.531917+00:00", "meta": {"OBJECT_NAME": "SKYSAT-C7", "OBJECT_ID": "2017-068E", "EPOCH": "2025-12-04T15:00:25.075872", "MEAN_MOTION": 15.32054452, "ECCENTRICITY": 0.0007895, "INCLINATION": 97.4285, "RA_OF_ASC_NODE": 109.64, "ARG_OF_PERICENTER": 82.4418, "MEAN_ANOMALY": 277.7721, "EPHEMERIS_TYPE": 0, "CLASSIFICATION_TYPE": "U", "NORAD_CAT_ID": 42991, "ELEMENT_SET_NO": 999, "REV_AT_EPOCH": 45253, "BSTAR": 0.00072751935, "MEAN_MOTION_DOT": 0.00022499, "MEAN_MOTION_DDOT": 0}, "tle": {"line1": "1 42991U 17068E   25338.62529023  .00022499  00000+0  72752-3 0  9998", "line2": "2 42991  97.4285 109.6400 0007895  82.4418 277.7721 15.32054452452531"}}, "geometry": {"type": "Point", "coordinates": [83.61885601170795, 73.58967429122552]}}, {"type": "Feature", "properties": {"norad_id": 42992, "name": "SKYSAT-C6", "group": "resource", "lat": -35.51880404212702, "lon": -74.9856246977679, "alt_km": 479.7503395402191, "timestamp": "2025-12-04T21:36:15.531927+00:00", "meta": {"OBJECT_NAME": "SKYSAT-C6", "OBJECT_ID": "2017-068F", "EPOCH": "2025-12-04T14:23:30.752736", "MEAN_MOTION": 15.31229154, "ECCENTRICITY": 0.00051643, "INCLINATION": 97.4319, "RA_OF_ASC_NODE": 110.0595, "ARG_OF_PERICENTER": 105.6508, "MEAN_ANOMALY": 254.5303, "EPHEMERIS_TYPE": 0, "CLASSIFICATION_TYPE": "U", "NORAD_CAT_ID": 42992, "ELEMENT_SET_NO": 999, "REV_AT_EPOCH": 45251, "BSTAR": 0.00072089409, "MEAN_MOTION_DOT": 0.00021714, "MEAN_MOTION_DDOT": 0}, "tle": {"line1": "1 42992U 17068F   25338.59966149  .00021714  00000+0  72089-3 0  9991", "line2": "2 42992  97.4319 110.0595 0005164 105.6508 254.5303 15.31229154452515"}}, "geometry": {"type": "Point", "coordinates": [-74.9856246977679, -35.51880404212702]}}, {"type": "Feature", "properties": {"norad_id": 43111, "name": "CARTOSAT-2F", "group": "resource", "lat": -54.452253487039734, "lon": 47.19395326680056, "alt_km": 515.1466089302776, "timestamp": "2025-12-04T21:36:15.531937+00:00", "meta": {"OBJECT_NAME": "CARTOSAT-2F", "OBJECT_ID": "2018-004A", "EPOCH": "2025-12-04T09:12:06.617952", "MEAN_MOTION": 15.19377761, "ECCENTRICITY": 0.00011346, "INCLINATION": 97.434, "RA_OF_ASC_NODE": 36.1563, "ARG_OF_PERICENTER": 188.6397, "MEAN_ANOMALY": 171.4819, "EPHEMERIS_TYPE": 0, "CLASSIFICATION_TYPE": "U", "NORAD_CAT_ID": 43111, "ELEMENT_SET_NO": 999, "REV_AT_EPOCH": 43775, "BSTAR": 8.8571519e-05, "MEAN_MOTION_DOT": 1.806e-05, "MEAN_MOTION_DDOT": 0}, "tle": {"line1": "1 43111U 18004A   25338.38340993  .00001806  00000+0  88572-4 0  9991", "line2": "2 43111  97.4340  36.1563 0001134 188.6397 171.4819 15.19377761437758"}}, "geometry": {"type": "Point", "coordinates": [47.19395326680056, -54.452253487039734]}}, {"type": "Feature", "properties": {"norad_id": 43259, "name": "GAOFEN-1 02", "group": "resource", "lat": -15.282052422347931, "lon": -145.53894092750903, "alt_km": 644.7588803677454, "timestamp": "2025-12-04T21:36:15.531947+00:00", "meta": {"OBJECT_NAME": "GAOFEN-1 02", "OBJECT_ID": "2018-031A", "EPOCH": "2025-12-04T15:50:34.024128", "MEAN_MOTION": 14.76454776, "ECCENTRICITY": 0.00013283, "INCLINATION": 98.0818, "RA_OF_ASC_NODE": 36.4459, "ARG_OF_PERICENTER": 250.6323, "MEAN_ANOMALY": 109.4743, "EPHEMERIS_TYPE": 0, "CLASSIFICATION_TYPE": "U", "NORAD_CAT_ID": 43259, "ELEMENT_SET_NO": 999, "REV_AT_EPOCH": 41399, "BSTAR": 0.00028054847, "MEAN_MOTION_DOT": 1.9e-05, "MEAN_MOTION_DDOT": 0}, "tle": {"line1": "1 43259U 18031A   25338.66011602  .00001900  00000+0  28055-3 0  9991", "line2": "2 43259  98.0818  36.4459 0001328 250.6323 109.4743 14.76454776413990"}}, "geometry": {"type": "Point", "coordinates": [-145.53894092750903, -15.282052422347931]}}, {"type": "Feature", "properties": {"norad_id": 43260, "name": "GAOFEN-1 03", "group": "resource", "lat": -47.9060389849772, "lon": 45.61274954051615, "alt_km": 646.1852327492079, "timestamp": "2025-12-04T21:36:15.531957+00:00", "meta": {"OBJECT_NAME": "GAOFEN-1 03", "OBJECT_ID": "2018-031B", "EPOCH": "2025-12-04T15:19:03.111744", "MEAN_MOTION": 14.76411098, "ECCENTRICITY": 0.00025452, "INCLINATION": 98.081, "RA_OF_ASC_NODE": 36.302, "ARG_OF_PERICENTER": 354.4331, "MEAN_ANOMALY": 5.6849, "EPHEMERIS_TYPE": 0, "CLASSIFICATION_TYPE": "U", "NORAD_CAT_ID": 43260, "ELEMENT_SET_NO": 999, "REV_AT_EPOCH": 41398, "BSTAR": 0.00027996377, "MEAN_MOTION_DOT": 1.894e-05, "MEAN_MOTION_DDOT": 0}, "tle": {"line1": "1 43260U 18031B   25338.63823046  .00001894  00000+0  27996-3 0  9998", "line2": "2 43260  98.0810  36.3020 0002545 354.4331   5.6849 14.76411098413984"}}, "geometry": {"type": "Point", "coordinates": [45.61274954051615, -47.9060389849772]}}]}